{
  "norad_id": 59322,
  "name": "STARLINK-31530",
  "history": [
    {
      "epoch": "2026-03-28T20:00:01.999872",
      "apogee_km": 441.75013721023424,
      "perigee_km": 420.55962088264187,
      "latitude_deg": -24.56924182662747,
      "longitude_deg": -167.79777792003006,
      "semi_major_axis_km": 6809.291879046438,
      "eccentricity": 0.001556,
      "inclination_deg": 42.996,
      "raan_deg": 74.4118,
      "arg_perigee_deg": 142.9276,
      "mean_anomaly_deg": 60.6001,
      "mean_motion_rev_day": 15.45075963
    },
    {
      "epoch": "2026-03-29T04:00:01.999584",
      "apogee_km": 441.17337425333244,
      "perigee_km": 420.032237156619,
      "latitude_deg": 14.403528720057274,
      "longitude_deg": -135.7977782401722,
      "semi_major_axis_km": 6808.739805704975,
      "eccentricity": 0.0015525,
      "inclination_deg": 42.9958,
      "raan_deg": 72.4811,
      "arg_perigee_deg": 144.4568,
      "mean_anomaly_deg": 115.4602,
      "mean_motion_rev_day": 15.45263886
    }
  ]
}